IDEFIX & ARIANE 42P R/B 
1 27422U 02021B   25342.80736640  .00000667  00000+0  27009-3 0  9991
2 27422  98.5780 277.5494 0012927  94.1611 266.1050 14.30946463231025
AQUA                    
1 27424U 02022A   25342.85040043  .00002176  00000+0  44570-3 0  9993
2 27424  98.4032 303.6664 0000942 113.9887 276.1729 14.61796330255463
CZ-4B R/B               
1 27432U 02024C   25342.76465029  .00000143  00000+0  96915-4 0  9992
2 27432  98.9001  31.5500 0049156 281.4272 187.8909 14.14526730216387
MIDORI II (ADEOS-II)    
1 27597U 02056A   25342.79492081  .00000600  00000+0  25400-3 0  9998
2 27597  98.7630 295.7306 0000065  35.1522 324.9664 14.29202197197318
H-2A R/B                
1 27601U 02056E   25342.84143499  .00000704  00000+0  26095-3 0  9992
2 27601  98.3058 301.7535 0071471  72.5752 344.8702 14.33671749201098
CZ-4B R/B               
1 28059U 03049C   25342.81309313  .00000792  00000+0  19322-3 0  9991
2 28059  98.6785 329.2288 0048805 147.8848 212.5337 14.54904439173386
CZ-2C R/B               
1 28222U 04012C   25342.81490353  .00046724  00000+0  68835-3 0  9997
2 28222  97.7423  35.1125 0016661 285.8375  74.1041 15.55120922190116
SL-16 R/B               
1 28353U 04021B   25342.66156836 -.00000152  00000+0 -54178-4 0  9993
2 28353  71.0022  63.5233 0005520 206.3747 153.7095 14.14581897109961
CZ-4B R/B               
1 28415U 04035C   25342.63039389  .00010928  00000+0  40566-3 0  9992
2 28415  97.3609  13.0292 0031776 292.8603  66.9282 15.27266918166000
CZ-2C R/B               
1 28480U 04046B   25342.75177132  .00000380  00000+0  15564-3 0  9999
2 28480  98.1987 258.3776 0140615  64.0079 297.5509 14.26937931 95531
ARIANE 5 R/B            
1 28499U 04049H   25342.47496793  .00001975  00000+0  22482-3 0  9996
2 28499  98.2522 142.6034 0083384 286.9804  72.2284 14.84997296132252
CZ-2D R/B               
1 28738U 05024B   25342.59822943  .00029901  00000+0  48219-3 0  9994
2 28738  97.3634 349.9366 0006115  20.5413 339.6085 15.52855332125618
