CCSDS_OMM_VERS = 2.0
CREATION_DATE  = 
ORIGINATOR     = 

OBJECT_NAME    = IDEFIX & ARIANE 42P R/B
OBJECT_ID      = 2002-021B
CENTER_NAME    = EARTH
REF_FRAME      = TEME
TIME_SYSTEM    = UTC
MEAN_ELEMENT_THEORY = SGP/SGP4

EPOCH          = 2025-12-08T19:22:36.456960
MEAN_MOTION    = 14.30946463
ECCENTRICITY   = .0012927
INCLINATION    = 98.5780
RA_OF_ASC_NODE = 277.5494
ARG_OF_PERICENTER = 94.1611
MEAN_ANOMALY   = 266.1050

EPHEMERIS_TYPE = 0
CLASSIFICATION_TYPE = U
NORAD_CAT_ID   = 27422
ELEMENT_SET_NO = 999
REV_AT_EPOCH   = 23102
BSTAR          = .27009E-3
MEAN_MOTION_DOT = .667E-5
MEAN_MOTION_DDOT = 0

CCSDS_OMM_VERS = 2.0
CREATION_DATE  = 
ORIGINATOR     = 

OBJECT_NAME    = AQUA
OBJECT_ID      = 2002-022A
CENTER_NAME    = EARTH
REF_FRAME      = TEME
TIME_SYSTEM    = UTC
MEAN_ELEMENT_THEORY = SGP/SGP4

EPOCH          = 2025-12-08T20:24:34.597152
MEAN_MOTION    = 14.61796330
ECCENTRICITY   = .0000942
INCLINATION    = 98.4032
RA_OF_ASC_NODE = 303.6664
ARG_OF_PERICENTER = 113.9887
MEAN_ANOMALY   = 276.1729

EPHEMERIS_TYPE = 0
CLASSIFICATION_TYPE = U
NORAD_CAT_ID   = 27424
ELEMENT_SET_NO = 999
REV_AT_EPOCH   = 25546
BSTAR          = .4457E-3
MEAN_MOTION_DOT = .2176E-4
MEAN_MOTION_DDOT = 0

CCSDS_OMM_VERS = 2.0
CREATION_DATE  = 
ORIGINATOR     = 

OBJECT_NAME    = CZ-4B R/B
OBJECT_ID      = 2002-024C
CENTER_NAME    = EARTH
REF_FRAME      = TEME
TIME_SYSTEM    = UTC
MEAN_ELEMENT_THEORY = SGP/SGP4

EPOCH          = 2025-12-08T18:21:05.785056
MEAN_MOTION    = 14.14526730
ECCENTRICITY   = .0049156
INCLINATION    = 98.9001
RA_OF_ASC_NODE = 31.5500
ARG_OF_PERICENTER = 281.4272
MEAN_ANOMALY   = 187.8909

EPHEMERIS_TYPE = 0
CLASSIFICATION_TYPE = U
NORAD_CAT_ID   = 27432
ELEMENT_SET_NO = 999
REV_AT_EPOCH   = 21638
BSTAR          = .96915E-4
MEAN_MOTION_DOT = .143E-5
MEAN_MOTION_DDOT = 0

CCSDS_OMM_VERS = 2.0
CREATION_DATE  = 
ORIGINATOR     = 

OBJECT_NAME    = MIDORI II (ADEOS-II)
OBJECT_ID      = 2002-056A
CENTER_NAME    = EARTH
REF_FRAME      = TEME
TIME_SYSTEM    = UTC
MEAN_ELEMENT_THEORY = SGP/SGP4

EPOCH          = 2025-12-08T19:04:41.157984
MEAN_MOTION    = 14.29202197
ECCENTRICITY   = .0000065
INCLINATION    = 98.7630
RA_OF_ASC_NODE = 295.7306
ARG_OF_PERICENTER = 35.1522
MEAN_ANOMALY   = 324.9664

EPHEMERIS_TYPE = 0
CLASSIFICATION_TYPE = U
NORAD_CAT_ID   = 27597
ELEMENT_SET_NO = 999
REV_AT_EPOCH   = 19731
BSTAR          = .254E-3
MEAN_MOTION_DOT = .6E-5
MEAN_MOTION_DDOT = 0

CCSDS_OMM_VERS = 2.0
CREATION_DATE  = 
ORIGINATOR     = 

OBJECT_NAME    = H-2A R/B
OBJECT_ID      = 2002-056E
CENTER_NAME    = EARTH
REF_FRAME      = TEME
TIME_SYSTEM    = UTC
MEAN_ELEMENT_THEORY = SGP/SGP4

EPOCH          = 2025-12-08T20:11:39.983136
MEAN_MOTION    = 14.33671749
ECCENTRICITY   = .0071471
INCLINATION    = 98.3058
RA_OF_ASC_NODE = 301.7535
ARG_OF_PERICENTER = 72.5752
MEAN_ANOMALY   = 344.8702

EPHEMERIS_TYPE = 0
CLASSIFICATION_TYPE = U
NORAD_CAT_ID   = 27601
ELEMENT_SET_NO = 999
REV_AT_EPOCH   = 20109
BSTAR          = .26095E-3
MEAN_MOTION_DOT = .704E-5
MEAN_MOTION_DDOT = 0

CCSDS_OMM_VERS = 2.0
CREATION_DATE  = 
ORIGINATOR     = 

OBJECT_NAME    = CZ-4B R/B
OBJECT_ID      = 2003-049C
CENTER_NAME    = EARTH
REF_FRAME      = TEME
TIME_SYSTEM    = UTC
MEAN_ELEMENT_THEORY = SGP/SGP4

EPOCH          = 2025-12-08T19:30:51.246432
MEAN_MOTION    = 14.54904439
ECCENTRICITY   = .0048805
INCLINATION    = 98.6785
RA_OF_ASC_NODE = 329.2288
ARG_OF_PERICENTER = 147.8848
MEAN_ANOMALY   = 212.5337

EPHEMERIS_TYPE = 0
CLASSIFICATION_TYPE = U
NORAD_CAT_ID   = 28059
ELEMENT_SET_NO = 999
REV_AT_EPOCH   = 17338
BSTAR          = .19322E-3
MEAN_MOTION_DOT = .792E-5
MEAN_MOTION_DDOT = 0

CCSDS_OMM_VERS = 2.0
CREATION_DATE  = 
ORIGINATOR     = 

OBJECT_NAME    = CZ-2C R/B
OBJECT_ID      = 2004-012C
CENTER_NAME    = EARTH
REF_FRAME      = TEME
TIME_SYSTEM    = UTC
MEAN_ELEMENT_THEORY = SGP/SGP4

EPOCH          = 2025-12-08T19:33:27.664992
MEAN_MOTION    = 15.55120922
ECCENTRICITY   = .0016661
INCLINATION    = 97.7423
RA_OF_ASC_NODE = 35.1125
ARG_OF_PERICENTER = 285.8375
MEAN_ANOMALY   = 74.1041

EPHEMERIS_TYPE = 0
CLASSIFICATION_TYPE = U
NORAD_CAT_ID   = 28222
ELEMENT_SET_NO = 999
REV_AT_EPOCH   = 19011
BSTAR          = .68835E-3
MEAN_MOTION_DOT = .46724E-3
MEAN_MOTION_DDOT = 0

CCSDS_OMM_VERS = 2.0
CREATION_DATE  = 
ORIGINATOR     = 

OBJECT_NAME    = SL-16 R/B
OBJECT_ID      = 2004-021B
CENTER_NAME    = EARTH
REF_FRAME      = TEME
TIME_SYSTEM    = UTC
MEAN_ELEMENT_THEORY = SGP/SGP4

EPOCH          = 2025-12-08T15:52:39.506304
MEAN_MOTION    = 14.14581897
ECCENTRICITY   = .000552
INCLINATION    = 71.0022
RA_OF_ASC_NODE = 63.5233
ARG_OF_PERICENTER = 206.3747
MEAN_ANOMALY   = 153.7095

EPHEMERIS_TYPE = 0
CLASSIFICATION_TYPE = U
NORAD_CAT_ID   = 28353
ELEMENT_SET_NO = 999
REV_AT_EPOCH   = 10996
BSTAR          = -.54178E-4
MEAN_MOTION_DOT = -.152E-5
MEAN_MOTION_DDOT = 0

CCSDS_OMM_VERS = 2.0
CREATION_DATE  = 
ORIGINATOR     = 

OBJECT_NAME    = CZ-4B R/B
OBJECT_ID      = 2004-035C
CENTER_NAME    = EARTH
REF_FRAME      = TEME
TIME_SYSTEM    = UTC
MEAN_ELEMENT_THEORY = SGP/SGP4

EPOCH          = 2025-12-08T15:07:46.032096
MEAN_MOTION    = 15.27266918
ECCENTRICITY   = .0031776
INCLINATION    = 97.3609
RA_OF_ASC_NODE = 13.0292
ARG_OF_PERICENTER = 292.8603
MEAN_ANOMALY   = 66.9282

EPHEMERIS_TYPE = 0
CLASSIFICATION_TYPE = U
NORAD_CAT_ID   = 28415
ELEMENT_SET_NO = 999
REV_AT_EPOCH   = 16600
BSTAR          = .40566E-3
MEAN_MOTION_DOT = .10928E-3
MEAN_MOTION_DDOT = 0

CCSDS_OMM_VERS = 2.0
CREATION_DATE  = 
ORIGINATOR     = 

OBJECT_NAME    = CZ-2C R/B
OBJECT_ID      = 2004-046B
CENTER_NAME    = EARTH
REF_FRAME      = TEME
TIME_SYSTEM    = UTC
MEAN_ELEMENT_THEORY = SGP/SGP4

EPOCH          = 2025-12-08T18:02:33.042048
MEAN_MOTION    = 14.26937931
ECCENTRICITY   = .0140615
INCLINATION    = 98.1987
RA_OF_ASC_NODE = 258.3776
ARG_OF_PERICENTER = 64.0079
MEAN_ANOMALY   = 297.5509

EPHEMERIS_TYPE = 0
CLASSIFICATION_TYPE = U
NORAD_CAT_ID   = 28480
ELEMENT_SET_NO = 999
REV_AT_EPOCH   = 9553
BSTAR          = .15564E-3
MEAN_MOTION_DOT = .38E-5
MEAN_MOTION_DDOT = 0

CCSDS_OMM_VERS = 2.0
CREATION_DATE  = 
ORIGINATOR     = 

OBJECT_NAME    = ARIANE 5 R/B
OBJECT_ID      = 2004-049H
CENTER_NAME    = EARTH
REF_FRAME      = TEME
TIME_SYSTEM    = UTC
MEAN_ELEMENT_THEORY = SGP/SGP4

EPOCH          = 2025-12-08T11:23:57.229152
MEAN_MOTION    = 14.84997296
ECCENTRICITY   = .00833847
INCLINATION    = 98.2522
RA_OF_ASC_NODE = 142.6034
ARG_OF_PERICENTER = 286.9804
MEAN_ANOMALY   = 72.2284

EPHEMERIS_TYPE = 0
CLASSIFICATION_TYPE = U
NORAD_CAT_ID   = 28499
ELEMENT_SET_NO = 999
REV_AT_EPOCH   = 13225
BSTAR          = .22481703E-3
MEAN_MOTION_DOT = .1975E-4
MEAN_MOTION_DDOT = 0

CCSDS_OMM_VERS = 2.0
CREATION_DATE  = 
ORIGINATOR     = 

OBJECT_NAME    = CZ-2D R/B
OBJECT_ID      = 2005-024B
CENTER_NAME    = EARTH
REF_FRAME      = TEME
TIME_SYSTEM    = UTC
MEAN_ELEMENT_THEORY = SGP/SGP4

EPOCH          = 2025-12-08T14:21:27.022752
MEAN_MOTION    = 15.52855332
ECCENTRICITY   = .0006115
INCLINATION    = 97.3634
RA_OF_ASC_NODE = 349.9366
ARG_OF_PERICENTER = 20.5413
MEAN_ANOMALY   = 339.6085

EPHEMERIS_TYPE = 0
CLASSIFICATION_TYPE = U
NORAD_CAT_ID   = 28738
ELEMENT_SET_NO = 999
REV_AT_EPOCH   = 12561
BSTAR          = .48219E-3
MEAN_MOTION_DOT = .29901E-3
MEAN_MOTION_DDOT = 0

